     3.02           N: GNSS NAV DATA    J: QZSS             RINEX VERSION / TYPE
BINEX2RINEX  2.09   GSI, JAPAN          20210701 17:44:56UTCPGM / RUN BY / DATE
                                                            END OF HEADER
J07 2021 06 30 04 00 00 6.519258022308D-09 0.000000000000D+00 0.000000000000D+00
     7.700000000000D+01-8.390625000000D+01 0.000000000000D+00-1.981563324523D-01
    -3.028661012650D-06 1.358155859634D-04 1.370161771774D-05 6.493290973663D+03
     2.736000000000D+05 2.909451723099D-06-2.230749504814D+00-1.700595021248D-06
     6.878611550353D-04-4.177187500000D+02-5.363043707726D-01 1.183620731126D-09
     0.000000000000D+00 2.000000000000D+00 2.164000000000D+03 1.000000000000D+00
     2.800000000000D+00 0.000000000000D+00-5.587935447693D-09 8.450000000000D+02
     2.700000000000D+05 4.000000000000D+00
J01 2021 06 30 05 00 00-4.056389443576D-04-7.617018127348D-12 0.000000000000D+00
     8.100000000000D+01-4.567812500000D+02 5.475228065226D-10 1.485959297952D+00
    -1.439452171326D-05 7.589446741622D-02 1.111626625061D-05 6.493637351990D+03
     2.772000000000D+05 2.570450305939D-06-2.391199834751D+00 4.917383193970D-07
     7.326639721096D-01-1.243437500000D+02-1.556606584649D+00-7.039578941005D-10
     3.785871982478D-11 2.000000000000D+00 2.164000000000D+03 1.000000000000D+00
     2.800000000000D+00 0.000000000000D+00-5.587935447693D-09 8.490000000000D+02
     2.736000000000D+05 4.000000000000D+00
J02 2021 06 30 05 00 00-4.954636096954D-07-2.273736754432D-13 0.000000000000D+00
     8.100000000000D+01-2.937500000000D+00 2.961551931954D-09-7.803433981490D-01
     1.434236764908D-07 7.543712737970D-02 2.624467015266D-06 6.493155309677D+03
     2.772000000000D+05-3.539025783539D-07-1.063943014640D-01 1.098960638046D-07
     7.396837684208D-01 9.131250000000D+01-1.584469578398D+00-3.372997641748D-09
    -4.478757986819D-10 2.000000000000D+00 2.164000000000D+03 1.000000000000D+00
     2.800000000000D+00 0.000000000000D+00 9.313225746155D-10 8.490000000000D+02
     2.736000000000D+05 4.000000000000D+00
J03 2021 06 30 05 00 00-9.566079825163D-06-1.136868377216D-12 0.000000000000D+00
     8.100000000000D+01 6.317187500000D+02 2.564392531528D-09-2.595985048397D+00
     1.863762736320D-05 7.473281549755D-02 4.744157195091D-06 6.493874000549D+03
     2.772000000000D+05 2.713873982430D-06 1.595324654372D+00-2.887099981308D-07
     7.122228767245D-01 4.246875000000D+01-1.541896643464D+00-2.770829701893D-09
    -6.843142187197D-10 2.000000000000D+00 2.164000000000D+03 1.000000000000D+00
     2.800000000000D+00 0.000000000000D+00 0.000000000000D+00 8.490000000000D+02
     2.736000000000D+05 4.000000000000D+00
J07 2021 06 30 05 00 00 6.053596735001D-09 0.000000000000D+00 0.000000000000D+00
     8.100000000000D+01-1.132187500000D+02 0.000000000000D+00 6.520884631305D-02
    -3.973022103310D-06 1.387407537550D-04 1.329369843006D-05 6.493298059464D+03
     2.772000000000D+05 3.460794687271D-06-2.231933086000D+00 6.165355443954D-07
     6.910108176599D-04-4.050312500000D+02-5.359533625974D-01 1.141833276225D-09
     0.000000000000D+00 2.000000000000D+00 2.164000000000D+03 1.000000000000D+00
     2.800000000000D+00 0.000000000000D+00-5.587935447693D-09 8.490000000000D+02
     2.736000000000D+05 4.000000000000D+00
J01 2021 06 30 06 00 00-4.056659527123D-04-7.617018127348D-12 0.000000000000D+00
     8.500000000000D+01-4.832500000000D+02 8.286059433349D-10 1.748500711936D+00
    -1.497380435467D-05 7.589528604876D-02 1.178495585918D-05 6.493627798080D+03
     2.808000000000D+05 1.199543476105D-06-2.391203249202D+00 1.892447471619D-06
     7.326626364654D-01-1.607500000000D+02-1.556658089606D+00-8.911085468192D-10
    -2.214377952016D-10 2.000000000000D+00 2.164000000000D+03 1.000000000000D+00
     2.800000000000D+00 0.000000000000D+00-5.587935447693D-09 8.530000000000D+02
     2.772000000000D+05 4.000000000000D+00
J02 2021 06 30 06 00 00-4.959292709827D-07-1.136868377216D-13 0.000000000000D+00
     8.500000000000D+01 1.012500000000D+01 3.002267913652D-09-5.177757481925D-01
     4.991888999939D-07 7.543802913278D-02 2.652406692505D-06 6.493158672333D+03
     2.808000000000D+05-1.937150955200D-07-1.064078217529D-01-2.421438694000D-08
     7.396816779109D-01 9.153125000000D+01-1.584480860422D+00-3.478359173336D-09
    -3.650152043484D-10 2.000000000000D+00 2.164000000000D+03 1.000000000000D+00
     2.800000000000D+00 0.000000000000D+00 9.313225746155D-10 8.530000000000D+02
     2.772000000000D+05 4.000000000000D+00
J03 2021 06 30 06 00 00-9.571667760611D-06-1.136868377216D-12 0.000000000000D+00
     8.500000000000D+01 5.475000000000D+02 2.935479417358D-09-2.333458368924D+00
     1.637637615204D-05 7.472571812104D-02 5.356967449188D-06 6.493893165588D+03
     2.808000000000D+05 3.257766366005D-06 1.595321459359D+00 1.862645149231D-06
     7.122185991520D-01 1.065625000000D+01-1.541963705092D+00-3.448715081397D-09
    -8.536069847286D-10 2.000000000000D+00 2.164000000000D+03 1.000000000000D+00
     2.800000000000D+00 0.000000000000D+00 0.000000000000D+00 8.530000000000D+02
     2.772000000000D+05 4.000000000000D+00
J07 2021 06 30 06 00 00 5.122274160385D-09 0.000000000000D+00 0.000000000000D+00
     8.500000000000D+01-1.490937500000D+02 0.000000000000D+00 3.201635247131D-01
    -5.129724740982D-06 1.440844498575D-04 1.183710992336D-05 6.493311311722D+03
     2.808000000000D+05 2.181157469749D-06-2.232153104491D+00 2.689659595490D-06
     6.937494003043D-04-3.598437500000D+02-5.281569513541D-01 1.063615732436D-09
     0.000000000000D+00 2.000000000000D+00 2.164000000000D+03 1.000000000000D+00
     2.800000000000D+00 0.000000000000D+00-5.587935447693D-09 8.530000000000D+02
     2.772000000000D+05 4.000000000000D+00
J01 2021 06 30 07 00 00-4.056943580508D-04-7.617018127348D-12 0.000000000000D+00
     8.900000000000D+01-5.520000000000D+02 1.651140205188D-09 2.011064043358D+00
    -1.665018498898D-05 7.589774939697D-02 1.218542456627D-05 6.493614597321D+03
     2.844000000000D+05-1.601874828339D-07-2.391213245321D+00 7.972121238708D-07
     7.326565375599D-01-1.893750000000D+02-1.556724059897D+00-1.714714281875D-09
    -1.610781381224D-10 2.000000000000D+00 2.164000000000D+03 1.000000000000D+00
     2.800000000000D+00 0.000000000000D+00-5.587935447693D-09 8.570000000000D+02
     2.808000000000D+05 4.000000000000D+00
J02 2021 06 30 07 00 00-4.963949322701D-07-1.136868377216D-13 0.000000000000D+00
     8.900000000000D+01 1.453125000000D+01 2.993696128032D-09-2.552168742815D-01
     6.407499313354D-07 7.543851365335D-02 2.743676304817D-06 6.493160177231D+03
     2.844000000000D+05-1.676380634308D-07-1.064204847718D-01 3.166496753693D-08
     7.396803203229D-01 8.896875000000D+01-1.584484216356D+00-3.477644857867D-09
    -3.457286867018D-10 2.000000000000D+00 2.164000000000D+03 1.000000000000D+00
     2.800000000000D+00 0.000000000000D+00 9.313225746155D-10 8.570000000000D+02
     2.808000000000D+05 4.000000000000D+00
J03 2021 06 30 07 00 00-9.575858712196D-06-1.136868377216D-12 0.000000000000D+00
     8.900000000000D+01 4.309062500000D+02 2.602251251353D-09-2.070900827732D+00
     1.345016062260D-05 7.471894053742D-02 5.263835191727D-06 6.493914846420D+03
     2.844000000000D+05 1.093372702599D-06 1.595307052542D+00 2.408400177956D-06
     7.122187425180D-01 1.150000000000D+01-1.542056192236D+00-3.334067448720D-09
    -4.453756945425D-10 2.000000000000D+00 2.164000000000D+03 1.000000000000D+00
     2.800000000000D+00 0.000000000000D+00 0.000000000000D+00 8.570000000000D+02
     2.808000000000D+05 4.000000000000D+00
J07 2021 06 30 07 00 00 5.122274160385D-09 0.000000000000D+00 0.000000000000D+00
     8.900000000000D+01-1.590000000000D+02 0.000000000000D+00 5.655833741320D-01
    -5.448237061501D-06 1.494184834883D-04 9.860843420029D-06 6.493325649261D+03
     2.844000000000D+05-1.043081283569D-07-2.232143554562D+00 3.233551979065D-06
     6.960520333611D-04-2.984062500000D+02-5.110573042281D-01 9.786121916973D-10
     0.000000000000D+00 2.000000000000D+00 2.164000000000D+03 1.000000000000D+00
     2.800000000000D+00 0.000000000000D+00-5.587935447693D-09 8.570000000000D+02
     2.808000000000D+05 4.000000000000D+00
J01 2021 06 30 08 00 00-4.057213664055D-04-7.617018127348D-12 0.000000000000D+00
     9.300000000000D+01-6.212500000000D+02 2.484032041334D-09 2.273612426684D+00
    -1.835636794567D-05 7.590083638206D-02 1.183338463306D-05 6.493604196548D+03
     2.880000000000D+05 9.387731552124D-07-2.391230193227D+00-7.469207048416D-07
     7.326509360466D-01-1.845312500000D+02-1.556767695818D+00-2.590465046124D-09
     3.017982853957D-10 2.000000000000D+00 2.164000000000D+03 1.000000000000D+00
     2.800000000000D+00 0.000000000000D+00-5.587935447693D-09 8.610000000000D+02
     2.844000000000D+05 4.000000000000D+00
J03 2021 06 30 08 00 00-9.579584002495D-06-1.136868377216D-12 0.000000000000D+00
     9.300000000000D+01 3.456250000000D+02 1.685070189937D-09-1.808358218544D+00
     1.117587089539D-05 7.471544679720D-02 4.652887582779D-06 6.493930715561D+03
     2.880000000000D+05 2.309679985046D-07 1.595290360647D+00 5.420297384262D-07
     7.122249672344D-01 4.365625000000D+01-1.542134195028D+00-2.410100390355D-09
    -1.928651764659D-11 2.000000000000D+00 2.164000000000D+03 1.000000000000D+00
     2.800000000000D+00 0.000000000000D+00 0.000000000000D+00 8.610000000000D+02
     2.844000000000D+05 4.000000000000D+00
J07 2021 06 30 08 00 00 5.122274160385D-09 0.000000000000D+00 0.000000000000D+00
     9.300000000000D+01-1.455000000000D+02 0.000000000000D+00 8.123819477690D-01
    -5.003064870834D-06 1.523932442069D-04 8.618459105492D-06 6.493334920883D+03
     2.880000000000D+05-1.924112439156D-06-2.232118104176D+00 2.114102244377D-06
     6.982303183811D-04-2.605000000000D+02-4.953540343524D-01 9.271814779730D-10
     0.000000000000D+00 2.000000000000D+00 2.164000000000D+03 1.000000000000D+00
     2.800000000000D+00 0.000000000000D+00-5.587935447693D-09 8.610000000000D+02
     2.844000000000D+05 4.000000000000D+00
